OBJECT_NAME,OBJECT_ID,EPOCH,MEAN_MOTION,ECCENTRICITY,INCLINATION,RA_OF_ASC_NODE,ARG_OF_PERICENTER,MEAN_ANOMALY,EPHEMERIS_TYPE,CLASSIFICATION_TYPE,NORAD_CAT_ID,ELEMENT_SET_NO,REV_AT_EPOCH,BSTAR,MEAN_MOTION_DOT,MEAN_MOTION_DDOT
FLOCK 4BE-20,2024-149X,2026-07-17T03:58:26.747904,15.38847929,.0005198,97.3687,280.3380,148.3753,211.7806,0,U,60489,999,10682,.2131E-3,.8108E-4,0
FLOCK 4BE-23,2024-149Y,2026-07-16T18:34:14.281824,15.38391323,.0004798,97.3776,280.3352,151.9413,208.2092,0,U,60490,999,10674,.22341E-3,.8378E-4,0
FLOCK 4BE-17,2024-149AA,2026-07-17T00:59:22.676352,15.40605177,.0004522,97.3766,281.6623,142.2522,217.9042,0,U,60492,999,10685,.23285E-3,.9395E-4,0
NUSAT-50 (NANCY ROMAN),2024-149AB,2026-07-17T04:27:15.268896,15.30339314,.0004888,97.3780,279.2408,96.8427,263.3370,0,U,60493,999,10671,.16886E-3,.4879E-4,0
FLOCK 4BE-22,2024-149AC,2026-07-16T19:13:28.424352,15.42017658,.000481,97.3731,281.6594,149.3154,210.8375,0,U,60494,999,10686,.23331E-3,.9868E-4,0
FLOCK 4BE-34,2024-149AD,2026-07-16T21:12:15.924960,15.41983232,.0004997,97.3780,282.5835,156.6878,203.4597,0,U,60495,999,10690,.23023E-3,.9726E-4,0
TYCHE,2024-149AE,2026-07-17T04:05:01.854240,15.25786383,.0003172,97.3746,275.5822,161.9086,198.2265,0,U,60496,999,10647,.9272E-4,.2297E-4,0
FLOCK 4BE-32,2024-149AF,2026-07-17T00:37:28.719840,15.43125219,.0005075,97.3715,282.2953,153.5202,206.6306,0,U,60497,999,10693,.24863E-3,.10922E-3,0
NUSAT-48 (HENRIETTA LEAVITT),2024-149AG,2026-07-17T04:11:31.301376,15.30294338,.0004959,97.3914,279.5256,152.7401,207.4101,0,U,60498,999,10672,.16639E-3,.48E-4,0
NUSAT-49 (KLARA DAN VON NEUMANN),2024-149AJ,2026-07-17T05:12:44.974080,15.29800004,.0002525,97.3781,279.3028,161.7492,198.3840,0,U,60500,999,10672,.61424E-4,.1697E-4,0
FLOCK 4BE-11,2024-149AK,2026-07-16T16:20:42.442656,15.43908786,.0005155,97.3694,282.2039,154.5490,205.6013,0,U,60501,999,10690,.23355E-3,.10529E-3,0
YAM-7,2024-149AN,2026-07-17T04:01:35.875776,15.32197599,.0003873,97.3775,278.3021,162.2541,197.8836,0,U,60504,999,10664,.12684E-3,.3865E-4,0
FLOCK 4BE-24,2024-149AP,2026-07-16T19:03:32.570208,15.44141481,.0005171,97.3710,282.5882,164.8161,195.3243,0,U,60505,999,10693,.27568E-3,.12546E-3,0
LUR-1,2024-149AQ,2026-07-16T19:11:22.555104,15.30458943,.0004152,97.3731,276.4190,177.1707,182.9558,0,U,60506,999,10650,.13148E-3,.3796E-4,0
TANAGER-1,2024-149AR,2026-07-16T20:01:13.067328,15.43939800,.0001584,97.2319,291.9586,131.3184,228.8201,0,U,60507,999,10761,.58168E-5,.18E-5,0
EAGLEEYE,2024-149AS,2026-07-16T19:08:17.687616,15.77085458,.0004865,97.3709,292.9048,181.4069,178.7184,0,U,60508,999,10759,.60471E-3,.99041E-3,0
FLOCK 4BE-29,2024-149AT,2026-07-16T18:48:25.407360,15.45564453,.0003649,97.3807,284.1262,172.7321,187.3982,0,U,60509,999,10698,.58011E-3,.27857E-3,0
TRANSPORTER-11 OBJECT AU,2024-149AU,2026-07-17T04:40:50.827008,15.41009019,.0004456,97.3723,282.1710,161.8906,198.2500,0,U,60510,999,10693,.20961E-3,.8562E-4,0
FLOCK 4BE-2,2024-149AV,2026-07-16T19:13:20.796960,15.56038813,.0005364,97.3829,286.0140,168.9366,191.2008,0,U,60511,999,10710,.61823E-3,.43143E-3,0
FLOCK 4BE-13,2024-149AW,2026-07-17T04:42:03.860064,15.42650098,.0005234,97.3716,282.9345,149.8766,210.2784,0,U,60512,999,10699,.19084E-3,.8228E-4,0
FLOCK 4BE-27,2024-149AX,2026-07-16T19:06:07.035264,15.34935178,.0004176,97.3822,279.6700,176.4882,183.6392,0,U,60513,999,10668,.16158E-3,.5394E-4,0
FLOCK 4BE-9,2024-149AY,2026-07-16T16:42:28.180800,15.41640499,.0003835,97.3789,282.2704,166.7214,193.4134,0,U,60514,999,10686,.28513E-3,.11929E-3,0
FLOCK 4BE-6,2024-149BA,2026-07-16T19:31:58.337760,15.40346521,.0004503,97.3785,281.6903,168.1521,191.9832,0,U,60516,999,10683,.23048E-3,.9219E-4,0
FLOCK 4BE-14,2024-149BB,2026-07-16T18:27:36.919584,15.41887264,.000553,97.3690,281.8103,171.7333,188.4006,0,U,60517,999,10688,.24668E-3,.10395E-3,0
FLOCK 4BE-1,2024-149BC,2026-07-16T19:38:54.085920,15.43549394,.0005161,97.3777,283.2454,171.1965,188.9375,0,U,60518,999,10694,.25497E-3,.11365E-3,0
FLOCK 4BE-28,2024-149BD,2026-07-17T01:04:44.740128,15.46393426,.0005272,97.3742,284.2976,169.9373,190.1983,0,U,60519,999,10705,.55835E-3,.27587E-3,0
IPERDRONE.0,2024-149BE,2026-07-16T20:03:39.301056,15.71268093,.0004004,97.3770,292.6128,164.5495,195.5890,0,U,60520,999,10756,.48349E-3,.61387E-3,0
TRANSPORTER-11 OBJECT BF,2024-149BF,2026-07-16T19:03:23.300352,16.14064388,.0011038,97.3801,296.5346,251.5408,108.4678,0,U,60521,999,10780,.10176E-2,.1228239E-1,.10621E-2
