FLOCK 4BE-20            
1 60489U 24149X   26198.16558736  .00008108  00000+0  21310-3 0  9990
2 60489  97.3687 280.3380 0005198 148.3753 211.7806 15.38847929106825
FLOCK 4BE-23            
1 60490U 24149Y   26197.77377641  .00008378  00000+0  22341-3 0  9996
2 60490  97.3776 280.3352 0004798 151.9413 208.2092 15.38391323106744
FLOCK 4BE-17            
1 60492U 24149AA  26198.04123468  .00009395  00000+0  23285-3 0  9993
2 60492  97.3766 281.6623 0004522 142.2522 217.9042 15.40605177106851
NUSAT-50 (NANCY ROMAN)  
1 60493U 24149AB  26198.18559339  .00004879  00000+0  16886-3 0  9990
2 60493  97.3780 279.2408 0004888  96.8427 263.3370 15.30339314106715
FLOCK 4BE-22            
1 60494U 24149AC  26197.80102343  .00009868  00000+0  23331-3 0  9994
2 60494  97.3731 281.6594 0004810 149.3154 210.8375 15.42017658106866
FLOCK 4BE-34            
1 60495U 24149AD  26197.88351765  .00009726  00000+0  23023-3 0  9998
2 60495  97.3780 282.5835 0004997 156.6878 203.4597 15.41983232106907
TYCHE                   
1 60496U 24149AE  26198.17016035  .00002297  00000+0  92720-4 0  9997
2 60496  97.3746 275.5822 0003172 161.9086 198.2265 15.25786383106477
FLOCK 4BE-32            
1 60497U 24149AF  26198.02602685  .00010922  00000+0  24863-3 0  9990
2 60497  97.3715 282.2953 0005075 153.5202 206.6306 15.43125219106931
NUSAT-48 (HENRIETTA LE*)
1 60498U 24149AG  26198.17466784  .00004800  00000+0  16639-3 0  9995
2 60498  97.3914 279.5256 0004959 152.7401 207.4101 15.30294338106724
NUSAT-49 (KLARA DAN VO*)
1 60500U 24149AJ  26198.21718720  .00001697  00000+0  61424-4 0  9998
2 60500  97.3781 279.3028 0002525 161.7492 198.3840 15.29800004106721
FLOCK 4BE-11            
1 60501U 24149AK  26197.68104679  .00010529  00000+0  23355-3 0  9995
2 60501  97.3694 282.2039 0005155 154.5490 205.6013 15.43908786106906
YAM-7                   
1 60504U 24149AN  26198.16777634  .00003865  00000+0  12684-3 0  9997
2 60504  97.3775 278.3021 0003873 162.2541 197.8836 15.32197599106640
FLOCK 4BE-24            
1 60505U 24149AP  26197.79412697  .00012546  00000+0  27568-3 0  9994
2 60505  97.3710 282.5882 0005171 164.8161 195.3243 15.44141481106930
LUR-1                   
1 60506U 24149AQ  26197.79956661  .00003796  00000+0  13148-3 0  9995
2 60506  97.3731 276.4190 0004152 177.1707 182.9558 15.30458943106502
TANAGER-1               
1 60507U 24149AR  26197.83417902  .00000180  00000+0  58168-5 0  9998
2 60507  97.2319 291.9586 0001584 131.3184 228.8201 15.43939800107610
EAGLEEYE                
1 60508U 24149AS  26197.79742694  .00099041  00000+0  60471-3 0  9995
2 60508  97.3709 292.9048 0004865 181.4069 178.7184 15.77085458107590
FLOCK 4BE-29            
1 60509U 24149AT  26197.78362740  .00027857  00000+0  58011-3 0  9998
2 60509  97.3807 284.1262 0003649 172.7321 187.3982 15.45564453106980
TRANSPORTER-11 OBJECT AU
1 60510U 24149AU  26198.19503272  .00008562  00000+0  20961-3 0  9998
2 60510  97.3723 282.1710 0004456 161.8906 198.2500 15.41009019106930
FLOCK 4BE-2             
1 60511U 24149AV  26197.80093515  .00043143  00000+0  61823-3 0  9996
2 60511  97.3829 286.0140 0005364 168.9366 191.2008 15.56038813107101
FLOCK 4BE-13            
1 60512U 24149AW  26198.19587801  .00008228  00000+0  19084-3 0  9993
2 60512  97.3716 282.9345 0005234 149.8766 210.2784 15.42650098106996
FLOCK 4BE-27            
1 60513U 24149AX  26197.79591476  .00005394  00000+0  16158-3 0  9992
2 60513  97.3822 279.6700 0004176 176.4882 183.6392 15.34935178106682
FLOCK 4BE-9             
1 60514U 24149AY  26197.69615950  .00011929  00000+0  28513-3 0  9995
2 60514  97.3789 282.2704 0003835 166.7214 193.4134 15.41640499106861
FLOCK 4BE-6             
1 60516U 24149BA  26197.81386965  .00009219  00000+0  23048-3 0  9999
2 60516  97.3785 281.6903 0004503 168.1521 191.9832 15.40346521106836
FLOCK 4BE-14            
1 60517U 24149BB  26197.76917731  .00010395  00000+0  24668-3 0  9991
2 60517  97.3690 281.8103 0005530 171.7333 188.4006 15.41887264106882
FLOCK 4BE-1             
1 60518U 24149BC  26197.81868155  .00011365  00000+0  25497-3 0  9992
2 60518  97.3777 283.2454 0005161 171.1965 188.9375 15.43549394106941
FLOCK 4BE-28            
1 60519U 24149BD  26198.04496227  .00027587  00000+0  55835-3 0  9998
2 60519  97.3742 284.2976 0005272 169.9373 190.1983 15.46393426107054
IPERDRONE.0             
1 60520U 24149BE  26197.83587154  .00061387  00000+0  48349-3 0  9994
2 60520  97.3770 292.6128 0004004 164.5495 195.5890 15.71268093107568
TRANSPORTER-11 OBJECT BF
1 60521U 24149BF  26197.79401968  .01228239  10621-2  10176-2 0  9999
2 60521  97.3801 296.5346 0011038 251.5408 108.4678 16.14064388107808
